IRIDIUM 171             
1 43929U 19002H   25048.89804120  .00000615  00000+0  21254-3 0  9998
2 43929  86.4023 196.1911 0001993  84.2710 275.8713 14.34216485319547
IRIDIUM 170             
1 43930U 19002J   25048.89524357  .00002668  00000+0  41900-3 0  9991
2 43930  86.6137 195.9679 0002444  99.3357 260.8136 14.72270845328007
IRIDIUM 167             
1 43931U 19002K   25048.89170022 -.00000020  00000+0 -14287-4 0  9999
2 43931  86.4014 195.9595 0002251  87.2434 272.9019 14.34216675319547
IRIDIUM 181             
1 56726U 23068S   25048.84069813  .00000295  00000+0  81552-4 0  9993
2 56726  86.4456 259.0909 0002243  76.7908 283.3543 14.43314088 92570
IRIDIUM 177             
1 56727U 23068T   25048.88946909  .00003716  00000+0  48534-3 0  9991
2 56727  86.2003 198.6984 0002480  99.9158 260.2343 14.80245369 94722
IRIDIUM 174             
1 56728U 23068U   25048.88402336  .00003702  00000+0  48340-3 0  9993
2 56728  86.2008 198.8240 0002016  81.6223 278.5226 14.80246901 94726
IRIDIUM 178             
1 56729U 23068V   25048.94621972  .00001118  00000+0  14364-3 0  9998
2 56729  86.5757 227.8703 0001864  69.9989 290.1433 14.80237198 94735
IRIDIUM 179             
1 56730U 23068W   25048.94078540  .00001090  00000+0  14000-3 0  9993
2 56730  86.6756 235.0983 0002075  87.4305 272.7155 14.80237634 94732
